STARLINK-36926          
1 67999U 26039P   26081.16668981  .00036116  00000+0  61938-3 0  9998
2 67999  42.9999 339.6811 0001407 268.5082 235.6668 15.50543257  4881
STARLINK-36931          
1 68000U 26039Q   26081.16668981  .00143746  00000+0  24195-2 0  9993
2 68000  42.9997 339.3998 0001995 272.1468 346.0429 15.50483808  4884
STARLINK-36903          
1 68001U 26039R   26081.16668981  .00156635  00000+0  26325-2 0  9992
2 68001  42.9999 339.6677 0002088 252.0285 257.6204 15.50472922  4885
STARLINK-36898          
1 68002U 26039S   26081.16668981  .00084735  00000+0  14362-2 0  9992
2 68002  42.9998 339.4426 0001668 268.4955 332.2466 15.50547211  4887
STARLINK-36862          
1 68003U 26039T   26081.16668981 -.01203767  00000+0 -22258-1 0  9996
2 68003  42.9996 339.5624 0001374 253.6725 297.9820 15.50912084  4887
STARLINK-36888          
1 68004U 26039U   26081.16668981 -.00011424  00000+0 -18922-3 0  9998
2 68004  42.9997 339.6167 0001066 260.9475 269.0154 15.50575836  4883
STARLINK-36910          
1 68005U 26039V   26081.16668981 -.00032059  00000+0 -54287-3 0  9990
2 68005  42.9992 339.3533 0001649 272.4136   4.4873 15.50578739  4886
STARLINK-36889          
1 68006U 26039W   26081.16668981  .00139829  00000+0  23558-2 0  9998
2 68006  42.9998 339.6825 0001205 274.7197 228.3224 15.50473630  4881
STARLINK-36592          
1 68007U 26039X   26081.16668981  .00127184  00000+0  21458-2 0  9997
2 68007  42.9999 339.3793 0001509 267.9143 357.9040 15.50485258  4880
STARLINK-36911          
1 68008U 26039Y   26081.16668981 -.00006911  00000+0 -11216-3 0  9996
2 68008  42.9999 339.4684 0001343 278.8759 310.5425 15.50561321  4889
STARLINK-36956          
1 68009U 26039Z   26081.16668981  .00144318  00000+0  24284-2 0  9997
2 68009  43.0000 339.5353 0001983 255.4255 307.0985 15.50489050  4881
STARLINK-36953          
1 68010U 26039AA  26081.16668981 -.01839560  00000+0 -31064-1 0  9995
2 68010  42.9998 339.0305 0001624 270.4549 135.9838 15.54198221  4880
